{"type": "FeatureCollection", "features": [ {"type": "Feature", "properties": {"norad_id": 35290, "name": "COSMOS 2251 DEB", "group": "cosmos-2251-debris", "lat": 44.163706882691756, "lon": -156.59169925761753, "alt_km": 622.6289621386522, "timestamp": "2025-12-22T18:58:53.828782+00:00", "meta": {"OBJECT_NAME": "COSMOS 2251 DEB", "OBJECT_ID": "1993-036AJU", "EPOCH": "2025-12-20T03:08:10.287168", "MEAN_MOTION": 14.80565596, "ECCENTRICITY": 0.00016036, "INCLINATION": 74.0049, "RA_OF_ASC_NODE": 44.8368, "ARG_OF_PERICENTER": 190.188, "MEAN_ANOMALY": 169.9265, "EPHEMERIS_TYPE": 0, "CLASSIFICATION_TYPE": "U", "NORAD_CAT_ID": 35290, "ELEMENT_SET_NO": 999, "REV_AT_EPOCH": 88067, "BSTAR": 0.0010027753, "MEAN_MOTION_DOT": 7.664e-05, "MEAN_MOTION_DDOT": 0}, "tle": {"line1": "1 35290U 93036AJU 25354.13067462  .00007664  00000+0  10028-2 0  9993", "line2": "2 35290  74.0049  44.8368 0001603 190.1880 169.9265 14.80565596880671"}}, "geometry": {"type": "Point", "coordinates": [-156.59169925761753, 44.163706882691756]}}, {"type": "Feature", "properties": {"norad_id": 35432, "name": "COSMOS 2251 DEB", "group": "cosmos-2251-debris", "lat": 50.170705764668504, "lon": 154.24585030638556, "alt_km": 496.03109643996777, "timestamp": "2025-12-22T18:58:53.828792+00:00", "meta": {"OBJECT_NAME": "COSMOS 2251 DEB", "OBJECT_ID": "1993-036AKA", "EPOCH": "2025-12-21T17:13:22.393056", "MEAN_MOTION": 15.24185927, "ECCENTRICITY": 0.00122477, "INCLINATION": 74.0219, "RA_OF_ASC_NODE": 356.6044, "ARG_OF_PERICENTER": 325.9977, "MEAN_ANOMALY": 34.0436, "EPHEMERIS_TYPE": 0, "CLASSIFICATION_TYPE": "U", "NORAD_CAT_ID": 35432, "ELEMENT_SET_NO": 999, "REV_AT_EPOCH": 87640, "BSTAR": 0.0022538808, "MEAN_MOTION_DOT": 0.00055403, "MEAN_MOTION_DDOT": 0}, "tle": {"line1": "1 35432U 93036AKA 25355.71762029  .00055403  00000+0  22539-2 0  9991", "line2": "2 35432  74.0219 356.6044 0012247 325.9977  34.0436 15.24185927876407"}}, "geometry": {"type": "Point", "coordinates": [154.24585030638556, 50.170705764668504]}}, {"type": "Feature", "properties": {"norad_id": 35433, "name": "COSMOS 2251 DEB", "group": "cosmos-2251-debris", "lat": -31.179909560786218, "lon": -49.939340719781285, "alt_km": 768.6166764020581, "timestamp": "2025-12-22T18:58:53.828802+00:00", "meta": {"OBJECT_NAME": "COSMOS 2251 DEB", "OBJECT_ID": "1993-036AKB", "EPOCH": "2025-12-10T18:27:52.031808", "MEAN_MOTION": 14.34742553, "ECCENTRICITY": 0.00254013, "INCLINATION": 74.0339, "RA_OF_ASC_NODE": 342.0559, "ARG_OF_PERICENTER": 37.4572, "MEAN_ANOMALY": 142.4072, "EPHEMERIS_TYPE": 0, "CLASSIFICATION_TYPE": "U", "NORAD_CAT_ID": 35433, "ELEMENT_SET_NO": 999, "REV_AT_EPOCH": 86552, "BSTAR": 0.00041847558, "MEAN_MOTION_DOT": 1.164e-05, "MEAN_MOTION_DDOT": 0}, "tle": {"line1": "1 35433U 93036AKB 25344.76935222  .00001164  00000+0  41848-3 0  9992", "line2": "2 35433  74.0339 342.0559 0025401  37.4572 142.4072 14.34742553865528"}}, "geometry": {"type": "Point", "coordinates": [-49.939340719781285, -31.179909560786218]}}, {"type": "Feature", "properties": {"norad_id": 35434, "name": "COSMOS 2251 DEB", "group": "cosmos-2251-debris", "lat": -73.14222591562043, "lon": 124.66716268784668, "alt_km": 751.5443137025741, "timestamp": "2025-12-22T18:58:53.828812+00:00", "meta": {"OBJECT_NAME": "COSMOS 2251 DEB", "OBJECT_ID": "1993-036AKC", "EPOCH": "2025-12-22T05:54:05.337504", "MEAN_MOTION": 14.2571381, "ECCENTRICITY": 0.00872817, "INCLINATION": 74.039, "RA_OF_ASC_NODE": 196.4671, "ARG_OF_PERICENTER": 265.2189, "MEAN_ANOMALY": 93.8988, "EPHEMERIS_TYPE": 0, "CLASSIFICATION_TYPE": "U", "NORAD_CAT_ID": 35434, "ELEMENT_SET_NO": 999, "REV_AT_EPOCH": 86253, "BSTAR": 0.00053067113, "MEAN_MOTION_DOT": 1.284e-05, "MEAN_MOTION_DDOT": 0}, "tle": {"line1": "1 35434U 93036AKC 25356.24589511  .00001284  00000+0  53067-3 0  9994", "line2": "2 35434  74.0390 196.4671 0087281 265.2189  93.8988 14.25713810862538"}}, "geometry": {"type": "Point", "coordinates": [124.66716268784668, -73.14222591562043]}}, {"type": "Feature", "properties": {"norad_id": 35435, "name": "COSMOS 2251 DEB", "group": "cosmos-2251-debris", "lat": -39.37775228172181, "lon": -82.10583955547571, "alt_km": 635.6608663295083, "timestamp": "2025-12-22T18:58:53.828822+00:00", "meta": {"OBJECT_NAME": "COSMOS 2251 DEB", "OBJECT_ID": "1993-036AKD", "EPOCH": "2025-12-21T14:40:33.079008", "MEAN_MOTION": 14.78710754, "ECCENTRICITY": 0.0007054, "INCLINATION": 74.0111, "RA_OF_ASC_NODE": 86.6037, "ARG_OF_PERICENTER": 183.8083, "MEAN_ANOMALY": 241.499, "EPHEMERIS_TYPE": 0, "CLASSIFICATION_TYPE": "U", "NORAD_CAT_ID": 35435, "ELEMENT_SET_NO": 999, "REV_AT_EPOCH": 87670, "BSTAR": 0.0016617, "MEAN_MOTION_DOT": 0.00012188, "MEAN_MOTION_DDOT": 0}, "tle": {"line1": "1 35435U 93036AKD 25355.61149397  .00012188  00000+0  16617-2 0  9993", "line2": "2 35435  74.0111  86.6037 0007054 183.8083 241.4990 14.78710754876704"}}, "geometry": {"type": "Point", "coordinates": [-82.10583955547571, -39.37775228172181]}}, {"type": "Feature", "properties": {"norad_id": 35439, "name": "COSMOS 2251 DEB", "group": "cosmos-2251-debris", "lat": -65.32244547330073, "lon": 78.93411777653425, "alt_km": 749.0197680440797, "timestamp": "2025-12-22T18:58:53.828832+00:00", "meta": {"OBJECT_NAME": "COSMOS 2251 DEB", "OBJECT_ID": "1993-036AKH", "EPOCH": "2025-12-20T15:40:28.809408", "MEAN_MOTION": 13.92842634, "ECCENTRICITY": 0.0242584, "INCLINATION": 74.0193, "RA_OF_ASC_NODE": 121.1801, "ARG_OF_PERICENTER": 288.7541, "MEAN_ANOMALY": 84.8538, "EPHEMERIS_TYPE": 0, "CLASSIFICATION_TYPE": "U", "NORAD_CAT_ID": 35439, "ELEMENT_SET_NO": 999, "REV_AT_EPOCH": 84071, "BSTAR": 0.0011295, "MEAN_MOTION_DOT": 1.838e-05, "MEAN_MOTION_DDOT": 0}, "tle": {"line1": "1 35439U 93036AKH 25354.65311122  .00001838  00000+0  11295-2 0  9994", "line2": "2 35439  74.0193 121.1801 0242584 288.7541  84.8538 13.92842634840712"}}, "geometry": {"type": "Point", "coordinates": [78.93411777653425, -65.32244547330073]}}, {"type": "Feature", "properties": {"norad_id": 35440, "name": "COSMOS 2251 DEB", "group": "cosmos-2251-debris", "lat": -44.58015647205173, "lon": 24.561310194663278, "alt_km": 679.0270143702646, "timestamp": "2025-12-22T18:58:53.828842+00:00", "meta": {"OBJECT_NAME": "COSMOS 2251 DEB", "OBJECT_ID": "1993-036AKJ", "EPOCH": "2025-12-17T20:15:19.490976", "MEAN_MOTION": 14.68838958, "ECCENTRICITY": 0.00695054, "INCLINATION": 74.0134, "RA_OF_ASC_NODE": 197.7346, "ARG_OF_PERICENTER": 337.3687, "MEAN_ANOMALY": 22.4422, "EPHEMERIS_TYPE": 0, "CLASSIFICATION_TYPE": "U", "NORAD_CAT_ID": 35440, "ELEMENT_SET_NO": 999, "REV_AT_EPOCH": 68840, "BSTAR": 0.00030670457, "MEAN_MOTION_DOT": 1.824e-05, "MEAN_MOTION_DDOT": 0}, "tle": {"line1": "1 35440U 93036AKJ 25351.84397559  .00001824  00000+0  30670-3 0  9996", "line2": "2 35440  74.0134 197.7346 0069505 337.3687  22.4422 14.68838958688408"}}, "geometry": {"type": "Point", "coordinates": [24.561310194663278, -44.58015647205173]}}, {"type": "Feature", "properties": {"norad_id": 35441, "name": "COSMOS 2251 DEB", "group": "cosmos-2251-debris", "lat": -39.94233868583313, "lon": -94.82095314571636, "alt_km": 711.7420271004867, "timestamp": "2025-12-22T18:58:53.828852+00:00", "meta": {"OBJECT_NAME": "COSMOS 2251 DEB", "OBJECT_ID": "1993-036AKK", "EPOCH": "2025-12-21T02:08:13.738560", "MEAN_MOTION": 14.62705296, "ECCENTRICITY": 0.00361872, "INCLINATION": 74.1353, "RA_OF_ASC_NODE": 282.196, "ARG_OF_PERICENTER": 175.8941, "MEAN_ANOMALY": 184.2531, "EPHEMERIS_TYPE": 0, "CLASSIFICATION_TYPE": "U", "NORAD_CAT_ID": 35441, "ELEMENT_SET_NO": 999, "REV_AT_EPOCH": 87552, "BSTAR": 0.00090653358, "MEAN_MOTION_DOT": 4.633e-05, "MEAN_MOTION_DDOT": 0}, "tle": {"line1": "1 35441U 93036AKK 25355.08904790  .00004633  00000+0  90653-3 0  9996", "line2": "2 35441  74.1353 282.1960 0036187 175.8941 184.2531 14.62705296875523"}}, "geometry": {"type": "Point", "coordinates": [-94.82095314571636, -39.94233868583313]}}, {"type": "Feature", "properties": {"norad_id": 35442, "name": "COSMOS 2251 DEB", "group": "cosmos-2251-debris", "lat": -73.58428411650091, "lon": 2.724063829379987, "alt_km": 623.2203974829736, "timestamp": "2025-12-22T18:58:53.828863+00:00", "meta": {"OBJECT_NAME": "COSMOS 2251 DEB", "OBJECT_ID": "1993-036AKL", "EPOCH": "2025-12-21T15:52:41.511648", "MEAN_MOTION": 14.84721405, "ECCENTRICITY": 0.00038256, "INCLINATION": 74.0271, "RA_OF_ASC_NODE": 81.4264, "ARG_OF_PERICENTER": 51.6549, "MEAN_ANOMALY": 308.4973, "EPHEMERIS_TYPE": 0, "CLASSIFICATION_TYPE": "U", "NORAD_CAT_ID": 35442, "ELEMENT_SET_NO": 999, "REV_AT_EPOCH": 87485, "BSTAR": 0.0016051143, "MEAN_MOTION_DOT": 0.00013595, "MEAN_MOTION_DDOT": 0}, "tle": {"line1": "1 35442U 93036AKL 25355.66159157  .00013595  00000+0  16051-2 0  9996", "line2": "2 35442  74.0271  81.4264 0003825  51.6549 308.4973 14.84721405874856"}}, "geometry": {"type": "Point", "coordinates": [2.724063829379987, -73.58428411650091]}}, {"type": "Feature", "properties": {"norad_id": 35443, "name": "COSMOS 2251 DEB", "group": "cosmos-2251-debris", "lat": 35.98421350027509, "lon": -36.770761970615204, "alt_km": 541.023136711844, "timestamp": "2025-12-22T18:58:53.828872+00:00", "meta": {"OBJECT_NAME": "COSMOS 2251 DEB", "OBJECT_ID": "1993-036AKM", "EPOCH": "2025-12-21T07:32:20.929632", "MEAN_MOTION": 14.97363427, "ECCENTRICITY": 0.00728025, "INCLINATION": 73.99, "RA_OF_ASC_NODE": 314.1919, "ARG_OF_PERICENTER": 93.8694, "MEAN_ANOMALY": 267.0818, "EPHEMERIS_TYPE": 0, "CLASSIFICATION_TYPE": "U", "NORAD_CAT_ID": 35443, "ELEMENT_SET_NO": 999, "REV_AT_EPOCH": 87006, "BSTAR": 0.0032774365, "MEAN_MOTION_DOT": 0.00040387, "MEAN_MOTION_DDOT": 0}, "tle": {"line1": "1 35443U 93036AKM 25355.31413113  .00040387  00000+0  32774-2 0  9993", "line2": "2 35443  73.9900 314.1919 0072802  93.8694 267.0818 14.97363427870064"}}, "geometry": {"type": "Point", "coordinates": [-36.770761970615204, 35.98421350027509]}}]}